TIANWANG 1C (TW-1C)     
1 40926U 15051B   17245.56853994  .00009360  00000-0  20879-3 0  9998
2 40926  97.2240 284.5531 0009654 241.6381 275.9301 15.43734463108853
TIANWANG 1B (TW-1B)     
1 40927U 15051C   17245.42922087  .00009231  00000-0  21386-3 0  9995
2 40927  97.2328 284.3971 0009262 255.4545 229.4442 15.42607599108776
TIANWANG 1A (TW-1A)     
1 40928U 15051D   17245.54242758  .00003478  00000-0  99461-4 0  9996
2 40928  97.2222 279.9658 0010440 281.0337 237.9756 15.36595126108571
LAPAN-A2 (IO-86)        
1 40931U 15052B   17245.45025493  .00000640  00000-0  10697-6 0  9990
2 40931   6.0000  41.7980 0013603 259.8138 100.0511 14.76538307104404
LQSAT                   
1 40958U 15057A   17245.41747998  .00000034  00000-0  13116-4 0  9995
2 40958  97.9729 319.3690 0017984 174.4325 185.7081 14.72980494102480
CHUBUSAT-2              
1 41338U 16012B   17245.55629821  .00000559  00000-0  37315-4 0  9998
2 41338  31.0043 340.8704 0013831 105.1840 255.0326 14.99785072 84617
CHUBUSAT-3              
1 41339U 16012C   17245.47400163  .00000474  00000-0  30434-4 0  9997
2 41339  31.0125 340.4129 0013604 110.5221 249.6891 14.99986777 84584
OUFTI-1                 
1 41458U 16025C   17245.39013604  .00003262  00000-0  17607-3 0  9998
2 41458  98.1790 287.3789 0173870  32.0924 329.0752 15.03464828 74176
E-ST@R-II               
1 41459U 16025D   17244.88707557  .00001826  00000-0  10073-3 0  9993
2 41459  98.1808 286.7855 0175164  34.1628 327.0727 15.03275787 74091
AAUSAT 4                
1 41460U 16025E   17245.50239749  .00003866  00000-0  20771-3 0  9990
2 41460  98.1741 287.5848 0167460  30.1579 330.9165 15.04280048 74211
NUSAT 1 (LO-87)         
1 41557U 16033B   17245.46267654  .00002859  00000-0  10947-3 0  9992
2 41557  97.4598 324.9744 0015901  94.9612 265.3443 15.27277904 70228
BEESAT-4                
1 41619U 16040W   17244.64432203  .00002787  00000-0  12864-3 0  9992
2 41619  97.4562 306.2762 0012832 154.2455 205.9422 15.20989915 54219
PRATHAM                 
1 41783U 16059A   17245.17991280  .00000092  00000-0  27373-4 0  9997
2 41783  98.1602 305.7291 0032298 279.7556  79.9999 14.62853820 49850
ALSAT 1N                
1 41789U 16059G   17245.37808538  .00000081  00000-0  24656-4 0  9997
2 41789  98.1602 306.5750 0026978 273.2846  86.5271 14.64068821 49908
NAYIF-1 (EO-88)         
1 42017U 17008BX  17244.90677777  .00003051  00000-0  13186-3 0  9999
2 42017  97.4888 306.1974 0005356 324.1823  35.9054 15.23235388 30168
LILACSAT-1              
1 42725U 98067ME  17245.55115346  .00025620  00000-0  35572-3 0  9999
2 42725  51.6406  11.5453 0006352 240.1752 119.8609 15.56831388 15525
MAX VALIER SAT          
1 42778U 17036P   17244.88976617  .00001843  00000-0  87399-4 0  9991
2 42778  97.4452 303.8052 0012869   6.9264 353.2147 15.20491161 10685
